ONEWEB-0349             
1 49281U 21090C   25318.00273724 -.00000027  00000+0 -98805-4 0  9994
2 49281  87.9173 317.3589 0001915  88.5021 271.6331 13.20773132201428
ONEWEB-0353             
1 49282U 21090D   25318.33019611  .00000170  00000+0  42450-3 0  9995
2 49282  87.8988 332.5087 0001999  98.8279 261.3078 13.14502409199357
ONEWEB-0356             
1 49283U 21090E   25318.07690473 -.00000020  00000+0 -82096-4 0  9995
2 49283  87.9178 317.3355 0001257 117.3648 242.7613 13.20772097201433
ONEWEB-0358             
1 49284U 21090F   25318.03113543  .00000002  00000+0 -28065-4 0  9995
2 49284  87.9190 317.3440 0001683  90.3019 269.8307 13.20772607202155
ONEWEB-0359             
1 49285U 21090G   25318.02797170 -.00001505  00000+0 -37323-2 0  9994
2 49285  87.9186 317.3462 0001818  78.2072 281.9265 13.20781432202131
ONEWEB-0360             
1 49286U 21090H   25318.01851671  .00000032  00000+0  45994-4 0  9998
2 49286  87.9180 317.3571 0001815  85.8615 274.2726 13.20770760201443
ONEWEB-0361             
1 49287U 21090J   25318.07532641 -.00000046  00000+0 -14627-3 0  9993
2 49287  87.9180 317.3413 0001678  93.3902 266.7424 13.20770785201908
ONEWEB-0362             
1 49288U 21090K   25318.16080198 -.00000069  00000+0 -20489-3 0  9997
2 49288  87.9212 347.7736 0002049  90.5363 269.6005 13.19726432198554
